<ndm xmlns:xsi="http://www.w3.org/2001/XMLSchema-instance" xsi:noNamespaceSchemaLocation="https://sanaregistry.org/r/ndmxml_unqualified/ndmxml-3.0.0-master-3.0.xsd">
<omm id="CCSDS_OMM_VERS" version="3.0">
<header>
<COMMENT>GENERATED VIA SPACE-TRACK.ORG API</COMMENT>
<CREATION_DATE>2026-01-13T10:18:41</CREATION_DATE>
<ORIGINATOR>18 SPCS</ORIGINATOR>
</header>
<body>
<segment>
<metadata>
<OBJECT_NAME>ISS (ZARYA)</OBJECT_NAME>
<OBJECT_ID>1998-067A</OBJECT_ID>
<CENTER_NAME>EARTH</CENTER_NAME>
<REF_FRAME>TEME</REF_FRAME>
<TIME_SYSTEM>UTC</TIME_SYSTEM>
<MEAN_ELEMENT_THEORY>SGP4</MEAN_ELEMENT_THEORY>
</metadata>
<data>
<meanElements>
<EPOCH>2026-01-13T05:00:55.752768</EPOCH>
<MEAN_MOTION>15.49269250</MEAN_MOTION>
<ECCENTRICITY>0.00077414</ECCENTRICITY>
<INCLINATION>51.6330</INCLINATION>
<RA_OF_ASC_NODE>346.6801</RA_OF_ASC_NODE>
<ARG_OF_PERICENTER>12.6584</ARG_OF_PERICENTER>
<MEAN_ANOMALY>347.4598</MEAN_ANOMALY>
</meanElements>
<tleParameters>
<EPHEMERIS_TYPE>0</EPHEMERIS_TYPE>
<CLASSIFICATION_TYPE>U</CLASSIFICATION_TYPE>
<NORAD_CAT_ID>25544</NORAD_CAT_ID>
<ELEMENT_SET_NO>999</ELEMENT_SET_NO>
<REV_AT_EPOCH>54773</REV_AT_EPOCH>
<BSTAR>0.00016698581000</BSTAR>
<MEAN_MOTION_DOT>0.00008852</MEAN_MOTION_DOT>
<MEAN_MOTION_DDOT>0.0000000000000</MEAN_MOTION_DDOT>
</tleParameters>
<userDefinedParameters>
<USER_DEFINED parameter="SEMIMAJOR_AXIS">6797.000</USER_DEFINED>
<USER_DEFINED parameter="PERIOD">92.947</USER_DEFINED>
<USER_DEFINED parameter="APOAPSIS">424.126</USER_DEFINED>
<USER_DEFINED parameter="PERIAPSIS">413.603</USER_DEFINED>
<USER_DEFINED parameter="OBJECT_TYPE">PAYLOAD</USER_DEFINED>
<USER_DEFINED parameter="RCS_SIZE">LARGE</USER_DEFINED>
<USER_DEFINED parameter="COUNTRY_CODE">CIS</USER_DEFINED>
<USER_DEFINED parameter="LAUNCH_DATE">1998-11-20</USER_DEFINED>
<USER_DEFINED parameter="SITE">TTMTR</USER_DEFINED>
<USER_DEFINED parameter="DECAY_DATE"/>
<USER_DEFINED parameter="FILE">4968454</USER_DEFINED>
<USER_DEFINED parameter="GP_ID">308826294</USER_DEFINED>
</userDefinedParameters>
</data>
</segment>
</body>
</omm>
</ndm>